0 TDS 1
1 40076U 14037H   15015.18639719  .00000824  00000-0  11457-3 0  6035
2 40076 098.3708 080.2934 0006849 041.2373 318.9355 14.80697442 28174
